<?xml version="1.0" encoding="UTF-8"?>
<ndm xmlns:xsi="http://www.w3.org/2001/XMLSchema-instance" xsi:noNamespaceSchemaLocation="https://sanaregistry.org/r/ndmxml_unqualified/ndmxml-2.0.0-master-2.0.xsd">
<omm id="CCSDS_OMM_VERS" version="2.0">
<header><CREATION_DATE/><ORIGINATOR/></header><body><segment><metadata><OBJECT_NAME>ONEWEB-0094</OBJECT_NAME><OBJECT_ID>2020-020AC</OBJECT_ID><CENTER_NAME>EARTH</CENTER_NAME><REF_FRAME>TEME</REF_FRAME><TIME_SYSTEM>UTC</TIME_SYSTEM><MEAN_ELEMENT_THEORY>SGP4</MEAN_ELEMENT_THEORY></metadata><data><meanElements><EPOCH>2024-07-11T09:05:47.799744</EPOCH><MEAN_MOTION>13.17649000</MEAN_MOTION><ECCENTRICITY>.0002253</ECCENTRICITY><INCLINATION>87.9183</INCLINATION><RA_OF_ASC_NODE>146.3653</RA_OF_ASC_NODE><ARG_OF_PERICENTER>81.5548</ARG_OF_PERICENTER><MEAN_ANOMALY>278.5839</MEAN_ANOMALY></meanElements><tleParameters><EPHEMERIS_TYPE>0</EPHEMERIS_TYPE><CLASSIFICATION_TYPE>U</CLASSIFICATION_TYPE><NORAD_CAT_ID>45450</NORAD_CAT_ID><ELEMENT_SET_NO>999</ELEMENT_SET_NO><REV_AT_EPOCH>21336</REV_AT_EPOCH><BSTAR>.22378E-3</BSTAR><MEAN_MOTION_DOT>.1E-5</MEAN_MOTION_DOT><MEAN_MOTION_DDOT>0</MEAN_MOTION_DDOT></tleParameters></data></segment></body></omm>
<omm id="CCSDS_OMM_VERS" version="2.0">
<header><CREATION_DATE/><ORIGINATOR/></header><body><segment><metadata><OBJECT_NAME>ONEWEB-0087</OBJECT_NAME><OBJECT_ID>2020-020AD</OBJECT_ID><CENTER_NAME>EARTH</CENTER_NAME><REF_FRAME>TEME</REF_FRAME><TIME_SYSTEM>UTC</TIME_SYSTEM><MEAN_ELEMENT_THEORY>SGP4</MEAN_ELEMENT_THEORY></metadata><data><meanElements><EPOCH>2024-07-12T04:50:27.392352</EPOCH><MEAN_MOTION>13.11416981</MEAN_MOTION><ECCENTRICITY>.0002381</ECCENTRICITY><INCLINATION>87.8971</INCLINATION><RA_OF_ASC_NODE>161.3420</RA_OF_ASC_NODE><ARG_OF_PERICENTER>83.9960</ARG_OF_PERICENTER><MEAN_ANOMALY>276.1439</MEAN_ANOMALY></meanElements><tleParameters><EPHEMERIS_TYPE>0</EPHEMERIS_TYPE><CLASSIFICATION_TYPE>U</CLASSIFICATION_TYPE><NORAD_CAT_ID>45451</NORAD_CAT_ID><ELEMENT_SET_NO>999</ELEMENT_SET_NO><REV_AT_EPOCH>21019</REV_AT_EPOCH><BSTAR>.13478E-2</BSTAR><MEAN_MOTION_DOT>.49E-5</MEAN_MOTION_DOT><MEAN_MOTION_DDOT>0</MEAN_MOTION_DDOT></tleParameters></data></segment></body></omm>
<omm id="CCSDS_OMM_VERS" version="2.0">
<header><CREATION_DATE/><ORIGINATOR/></header><body><segment><metadata><OBJECT_NAME>ONEWEB-0082</OBJECT_NAME><OBJECT_ID>2020-020AE</OBJECT_ID><CENTER_NAME>EARTH</CENTER_NAME><REF_FRAME>TEME</REF_FRAME><TIME_SYSTEM>UTC</TIME_SYSTEM><MEAN_ELEMENT_THEORY>SGP4</MEAN_ELEMENT_THEORY></metadata><data><meanElements><EPOCH>2024-07-12T04:45:46.190592</EPOCH><MEAN_MOTION>13.11417914</MEAN_MOTION><ECCENTRICITY>.0002053</ECCENTRICITY><INCLINATION>87.8978</INCLINATION><RA_OF_ASC_NODE>161.3468</RA_OF_ASC_NODE><ARG_OF_PERICENTER>81.7496</ARG_OF_PERICENTER><MEAN_ANOMALY>278.3864</MEAN_ANOMALY></meanElements><tleParameters><EPHEMERIS_TYPE>0</EPHEMERIS_TYPE><CLASSIFICATION_TYPE>U</CLASSIFICATION_TYPE><NORAD_CAT_ID>45452</NORAD_CAT_ID><ELEMENT_SET_NO>999</ELEMENT_SET_NO><REV_AT_EPOCH>21028</REV_AT_EPOCH><BSTAR>.1128E-2</BSTAR><MEAN_MOTION_DOT>.412E-5</MEAN_MOTION_DOT><MEAN_MOTION_DDOT>0</MEAN_MOTION_DDOT></tleParameters></data></segment></body></omm>
<omm id="CCSDS_OMM_VERS" version="2.0">
<header><CREATION_DATE/><ORIGINATOR/></header><body><segment><metadata><OBJECT_NAME>ONEWEB-0050</OBJECT_NAME><OBJECT_ID>2020-020AF</OBJECT_ID><CENTER_NAME>EARTH</CENTER_NAME><REF_FRAME>TEME</REF_FRAME><TIME_SYSTEM>UTC</TIME_SYSTEM><MEAN_ELEMENT_THEORY>SGP4</MEAN_ELEMENT_THEORY></metadata><data><meanElements><EPOCH>2024-07-12T01:09:22.815936</EPOCH><MEAN_MOTION>14.89908686</MEAN_MOTION><ECCENTRICITY>.0003689</ECCENTRICITY><INCLINATION>88.0025</INCLINATION><RA_OF_ASC_NODE>21.8424</RA_OF_ASC_NODE><ARG_OF_PERICENTER>39.3643</ARG_OF_PERICENTER><MEAN_ANOMALY>320.7853</MEAN_ANOMALY></meanElements><tleParameters><EPHEMERIS_TYPE>0</EPHEMERIS_TYPE><CLASSIFICATION_TYPE>U</CLASSIFICATION_TYPE><NORAD_CAT_ID>45453</NORAD_CAT_ID><ELEMENT_SET_NO>999</ELEMENT_SET_NO><REV_AT_EPOCH>23532</REV_AT_EPOCH><BSTAR>.27468E-3</BSTAR><MEAN_MOTION_DOT>.2665E-4</MEAN_MOTION_DOT><MEAN_MOTION_DDOT>0</MEAN_MOTION_DDOT></tleParameters></data></segment></body></omm>
<omm id="CCSDS_OMM_VERS" version="2.0">
<header><CREATION_DATE/><ORIGINATOR/></header><body><segment><metadata><OBJECT_NAME>ONEWEB-0034</OBJECT_NAME><OBJECT_ID>2020-020AG</OBJECT_ID><CENTER_NAME>EARTH</CENTER_NAME><REF_FRAME>TEME</REF_FRAME><TIME_SYSTEM>UTC</TIME_SYSTEM><MEAN_ELEMENT_THEORY>SGP4</MEAN_ELEMENT_THEORY></metadata><data><meanElements><EPOCH>2024-07-12T03:27:38.646720</EPOCH><MEAN_MOTION>13.11415197</MEAN_MOTION><ECCENTRICITY>.0002108</ECCENTRICITY><INCLINATION>87.8973</INCLINATION><RA_OF_ASC_NODE>161.3769</RA_OF_ASC_NODE><ARG_OF_PERICENTER>82.3457</ARG_OF_PERICENTER><MEAN_ANOMALY>277.7910</MEAN_ANOMALY></meanElements><tleParameters><EPHEMERIS_TYPE>0</EPHEMERIS_TYPE><CLASSIFICATION_TYPE>U</CLASSIFICATION_TYPE><NORAD_CAT_ID>45454</NORAD_CAT_ID><ELEMENT_SET_NO>999</ELEMENT_SET_NO><REV_AT_EPOCH>21019</REV_AT_EPOCH><BSTAR>.77215E-3</BSTAR><MEAN_MOTION_DOT>.286E-5</MEAN_MOTION_DOT><MEAN_MOTION_DDOT>0</MEAN_MOTION_DDOT></tleParameters></data></segment></body></omm>
<omm id="CCSDS_OMM_VERS" version="2.0">
<header><CREATION_DATE/><ORIGINATOR/></header><body><segment><metadata><OBJECT_NAME>ONEWEB-0060</OBJECT_NAME><OBJECT_ID>2020-020AH</OBJECT_ID><CENTER_NAME>EARTH</CENTER_NAME><REF_FRAME>TEME</REF_FRAME><TIME_SYSTEM>UTC</TIME_SYSTEM><MEAN_ELEMENT_THEORY>SGP4</MEAN_ELEMENT_THEORY></metadata><data><meanElements><EPOCH>2024-07-12T04:28:52.827456</EPOCH><MEAN_MOTION>13.11419956</MEAN_MOTION><ECCENTRICITY>.0002098</ECCENTRICITY><INCLINATION>87.8982</INCLINATION><RA_OF_ASC_NODE>161.3846</RA_OF_ASC_NODE><ARG_OF_PERICENTER>90.1286</ARG_OF_PERICENTER><MEAN_ANOMALY>270.0082</MEAN_ANOMALY></meanElements><tleParameters><EPHEMERIS_TYPE>0</EPHEMERIS_TYPE><CLASSIFICATION_TYPE>U</CLASSIFICATION_TYPE><NORAD_CAT_ID>45455</NORAD_CAT_ID><ELEMENT_SET_NO>999</ELEMENT_SET_NO><REV_AT_EPOCH>21015</REV_AT_EPOCH><BSTAR>-.17202E-3</BSTAR><MEAN_MOTION_DOT>-.48E-6</MEAN_MOTION_DOT><MEAN_MOTION_DDOT>0</MEAN_MOTION_DDOT></tleParameters></data></segment></body></omm>
<omm id="CCSDS_OMM_VERS" version="2.0">
<header><CREATION_DATE/><ORIGINATOR/></header><body><segment><metadata><OBJECT_NAME>ONEWEB-0086</OBJECT_NAME><OBJECT_ID>2020-020AJ</OBJECT_ID><CENTER_NAME>EARTH</CENTER_NAME><REF_FRAME>TEME</REF_FRAME><TIME_SYSTEM>UTC</TIME_SYSTEM><MEAN_ELEMENT_THEORY>SGP4</MEAN_ELEMENT_THEORY></metadata><data><meanElements><EPOCH>2024-07-12T11:23:42.957600</EPOCH><MEAN_MOTION>13.11416064</MEAN_MOTION><ECCENTRICITY>.0002478</ECCENTRICITY><INCLINATION>87.8974</INCLINATION><RA_OF_ASC_NODE>161.3121</RA_OF_ASC_NODE><ARG_OF_PERICENTER>80.0295</ARG_OF_PERICENTER><MEAN_ANOMALY>280.1112</MEAN_ANOMALY></meanElements><tleParameters><EPHEMERIS_TYPE>0</EPHEMERIS_TYPE><CLASSIFICATION_TYPE>U</CLASSIFICATION_TYPE><NORAD_CAT_ID>45456</NORAD_CAT_ID><ELEMENT_SET_NO>999</ELEMENT_SET_NO><REV_AT_EPOCH>21024</REV_AT_EPOCH><BSTAR>-.1427E-2</BSTAR><MEAN_MOTION_DOT>-.493E-5</MEAN_MOTION_DOT><MEAN_MOTION_DDOT>0</MEAN_MOTION_DDOT></tleParameters></data></segment></body></omm>
<omm id="CCSDS_OMM_VERS" version="2.0">
<header><CREATION_DATE/><ORIGINATOR/></header><body><segment><metadata><OBJECT_NAME>ONEWEB-0088</OBJECT_NAME><OBJECT_ID>2020-020AK</OBJECT_ID><CENTER_NAME>EARTH</CENTER_NAME><REF_FRAME>TEME</REF_FRAME><TIME_SYSTEM>UTC</TIME_SYSTEM><MEAN_ELEMENT_THEORY>SGP4</MEAN_ELEMENT_THEORY></metadata><data><meanElements><EPOCH>2024-07-12T03:32:32.105184</EPOCH><MEAN_MOTION>13.11415020</MEAN_MOTION><ECCENTRICITY>.0002191</ECCENTRICITY><INCLINATION>87.8969</INCLINATION><RA_OF_ASC_NODE>161.3414</RA_OF_ASC_NODE><ARG_OF_PERICENTER>84.3067</ARG_OF_PERICENTER><MEAN_ANOMALY>275.8311</MEAN_ANOMALY></meanElements><tleParameters><EPHEMERIS_TYPE>0</EPHEMERIS_TYPE><CLASSIFICATION_TYPE>U</CLASSIFICATION_TYPE><NORAD_CAT_ID>45457</NORAD_CAT_ID><ELEMENT_SET_NO>999</ELEMENT_SET_NO><REV_AT_EPOCH>21014</REV_AT_EPOCH><BSTAR>.46044E-3</BSTAR><MEAN_MOTION_DOT>.176E-5</MEAN_MOTION_DOT><MEAN_MOTION_DDOT>0</MEAN_MOTION_DDOT></tleParameters></data></segment></body></omm>

</ndm>
