ONEWEB-0094             
1 45450U 20020AC  24193.37902546  .00000100  00000+0  22378-3 0  9992
2 45450  87.9183 146.3653 0002253  81.5548 278.5839 13.17649000213365
ONEWEB-0087             
1 45451U 20020AD  24194.20170593  .00000490  00000+0  13478-2 0  9997
2 45451  87.8971 161.3420 0002381  83.9960 276.1439 13.11416981210197
ONEWEB-0082             
1 45452U 20020AE  24194.19845128  .00000412  00000+0  11280-2 0  9992
2 45452  87.8978 161.3468 0002053  81.7496 278.3864 13.11417914210286
ONEWEB-0050             
1 45453U 20020AF  24194.04818074  .00002665  00000+0  27468-3 0  9995
2 45453  88.0025  21.8424 0003689  39.3643 320.7853 14.89908686235323
ONEWEB-0034             
1 45454U 20020AG  24194.14419730  .00000286  00000+0  77215-3 0  9995
2 45454  87.8973 161.3769 0002108  82.3457 277.7910 13.11415197210198
ONEWEB-0060             
1 45455U 20020AH  24194.18672254 -.00000048  00000+0 -17202-3 0  9990
2 45455  87.8982 161.3846 0002098  90.1286 270.0082 13.11419956210159
ONEWEB-0086             
1 45456U 20020AJ  24194.47480275 -.00000493  00000+0 -14270-2 0  9998
2 45456  87.8974 161.3121 0002478  80.0295 280.1112 13.11416064210240
ONEWEB-0088             
1 45457U 20020AK  24194.14759381  .00000176  00000+0  46044-3 0  9991
2 45457  87.8969 161.3414 0002191  84.3067 275.8311 13.11415020210148
